#aV2016  1  6  0  0  0.00000000     288 DD+AD WGS84 FIT  NGA
## 1878 259200.00000000   300.00000000 57393 0.0000000000000
+   31     1  2  3  5  6  7  8  9 10 11 12 13 14 15 16 17 18
+         19 20 21 22 23 24 25 26 27 28 29 30 31 32  0  0  0
+          0  0  0  0  0  0  0  0  0  0  0  0  0  0  0  0  0
+          0  0  0  0  0  0  0  0  0  0  0  0  0  0  0  0  0
+          0  0  0  0  0  0  0  0  0  0  0  0  0  0  0  0  0
++         2  2  2  2  2  2  2  2  2  2  2  2  2  2  2  2  2
++         2  2  2  2  2  2  2  2  2  2  2  2  2  2  0  0  0
++         0  0  0  0  0  0  0  0  0  0  0  0  0  0  0  0  0
++         0  0  0  0  0  0  0  0  0  0  0  0  0  0  0  0  0
++         0  0  0  0  0  0  0  0  0  0  0  0  0  0  0  0  0
%c cc cc ccc ccc cccc cccc cccc cccc ccccc ccccc ccccc ccccc
%c cc cc ccc ccc cccc cccc cccc cccc ccccc ccccc ccccc ccccc
%f  0.0000000  0.000000000  0.00000000000  0.000000000000000
%f  0.0000000  0.000000000  0.00000000000  0.000000000000000
%i    0    0    0    0      0      0      0      0         0
%i    0    0    0    0      0      0      0      0         0
/*      NGA, ST. LOUIS,MO.                                  
/*   EPHEMERIS COMPUTED FROM 2 DAYS OF DATA                 
/*   EPOCHA v2.4 SMOOTHER                                   
/*   G1762 IERS2010 SATAF SATAPC                            
*  2016  1  6  9 40  0.00000000
P  1  20339.901350  10052.774595  13904.552765      8.452795                    
V  1   9466.270057  15078.846147 -24410.821864      0.009384                    
P  2 -12956.028014 -22537.678540   6856.283572    598.892676                    
V  2   7426.373384   4282.515596  29470.827645      0.004041                    
P  3  15595.831507   1420.183861  21452.471312     -7.849510                    
V  3  -9397.802742  25581.480181   5122.844680     -0.050953                    
P  5  -5354.315560 -19945.721118 -16663.220209   -157.995060                    
V  5   9476.349715 -19030.917617  20011.088296      0.035807                    
P  6  -1466.473299 -20455.632039  16886.137563    124.575363                    
V  6  14820.899030  15567.742021  20139.112888      0.062919                    
P  7  14652.518413  -5153.338450 -21461.250491    474.786610                    
V  7  16487.212737  21988.737596   5562.797524     -0.014068                    
P  8  20969.410730   6981.973104 -14677.658013    -19.001721                    
V  8 -18161.536030   5030.717425 -23459.827713     -0.014309                    
P  9  24361.387656  -8492.242291  -6349.324274     44.166459                    
V  9   8394.748416   1515.084870  30254.679447      0.079277                    
P 10 -10717.166662  24194.359406  -1966.562224     48.962998                    
V 10  -1821.327445  -3380.459311 -31615.535412      0.013497                    
P 11  24131.489399   9888.964361   4643.502122   -625.743187                    
V 11   3295.550367   7444.828937 -29435.438424     -0.019987                    
P 12 -13520.892958  -5321.100383  22119.405433    358.916839                    
V 12  11368.151381 -25889.537964    928.232957      0.028026                    
P 13 -13061.262318 -12703.427264 -19428.888780   -176.541453                    
V 13  24305.282762  -2194.210841 -15099.856633     -0.026263                    
P 14 -12494.972687  14114.499094  18901.644177     10.902835                    
V 14 -23558.254970    460.139327 -16274.691174     -0.023219                    
P 15 -23408.300520  -4325.306744 -12249.836037   -290.884021                    
V 15  14394.343862  -5908.138409 -25322.550442     -0.018758                    
P 16   2949.403282  20051.250446 -17037.703772    -50.773435                    
V 16 -10406.887397  18937.907256  20952.212946      0.033280                    
P 17  12952.801479 -14122.305770  18622.599156   -198.237063                    
V 17  23029.678311  -1214.776423 -17438.803522     -0.007531                    
P 18 -15599.772666  17472.851237 -11744.796831    470.215853                    
V 18   1895.902139 -16191.146008 -25771.346606      0.039265                    
P 19  16333.103430 -12495.305707  16841.791228   -524.265804                    
V 19  21642.126789     67.497839 -20248.271539     -0.002263                    
P 20 -15484.151159  -4218.214356 -21324.773794    383.732150                    
V 20   7627.036517 -25742.471523   -386.497263      0.027227                    
P 21 -12162.046254   9480.926897 -20905.879956   -503.707767                    
V 21 -18337.302335 -21627.766582    535.168753     -0.021033                    
P 22  -4164.995192  25493.497708   6095.925739    414.315553                    
V 22  -6237.709187   5775.259884 -29663.386483     -0.038906                    
P 23  26260.011535    -82.305630   5488.452117   -153.539204                    
V 23  -6178.906761   3760.466198  30144.320461     -0.019470                    
P 24 -20797.040360 -12125.619899  11381.496080    -10.335817                    
V 24  -7377.644742 -12701.525387 -26727.382360     -0.005329                    
P 25 -16750.286985   9451.415216  18133.644821    -94.923338                    
V 25   7091.344450 -22194.963015  18193.261092     -0.062965                    
P 26  -3510.050756  25054.779174  -8031.213157   -198.887336                    
V 26  -6114.378590   8603.885673  29522.108807     -0.168958                    
P 27  11549.302096  12391.792848 -20514.316447     50.921775                    
V 27 -25479.849598   4906.673227 -11257.540418      0.034269                    
P 28  12108.912642 -23519.124501  -1316.984733    493.432018                    
V 28    751.641758   3067.198465 -32361.021389      0.026294                    
P 29 -25775.204766   5105.921601  -3712.907505    650.832067                    
V 29  -4943.178905  -1855.028602  31652.521099      0.011750                    
P 30   6901.387063 -15460.546127 -20448.139655     80.789366                    
V 30  15711.653848  20744.136229 -10459.511301      0.048792                    
P 31   2231.526262  21024.528531  15967.417617    288.204978                    
V 31 -13624.732262 -14993.335748  22159.525512     -0.015581                    
P 32   9342.198562  14383.063289  20328.335123     71.739923                    
V 32 -11977.839266  22986.913409 -10188.055934      0.124684                    
EOF
